{
  "type": "FeatureCollection",
  "features": [
    {
      "type": "Feature",
      "properties": {
        "norad_id": 34003,
        "name": "COSMOS 2251 DEB",
        "group": "cosmos-2251-debris",
        "lat": 53.283809234872486,
        "lon": 74.09734220538229,
        "alt_km": 959.3242422477297,
        "timestamp": "2025-12-17T19:34:08.431060+00:00",
        "meta_object_name": "COSMOS 2251 DEB",
        "meta_object_id": "1993-036GN",
        "meta_epoch": "2025-12-16T20:26:52.468224",
        "meta_mean_motion": 13.84175487,
        "meta_eccentricity": 0.02747173,
        "meta_inclination": 74.0776,
        "meta_ra_of_asc_node": 278.222,
        "meta_arg_of_pericenter": 29.3035,
        "meta_mean_anomaly": 332.3183,
        "meta_ephemeris_type": 0,
        "meta_classification_type": "U",
        "meta_norad_cat_id": 34003,
        "meta_element_set_no": 999,
        "meta_rev_at_epoch": 84482,
        "meta_bstar": 0.0016336828,
        "meta_mean_motion_dot": 2.418e-05,
        "meta_mean_motion_ddot": 0,
        "tle_line1": "1 34003U 93036GN  25350.85199616  .00002418  00000+0  16337-2 0  9997",
        "tle_line2": "2 34003  74.0776 278.2220 0274717  29.3035 332.3183 13.84175487844823"
      },
      "geometry": {
        "type": "Point",
        "coordinates": [
          74.09734220538229,
          53.283809234872486
        ]
      }
    },
    {
      "type": "Feature",
      "properties": {
        "norad_id": 34004,
        "name": "COSMOS 2251 DEB",
        "group": "cosmos-2251-debris",
        "lat": -40.899555279788295,
        "lon": 137.94946362533523,
        "alt_km": 735.7891622632251,
        "timestamp": "2025-12-17T19:34:08.431070+00:00",
        "meta_object_name": "COSMOS 2251 DEB",
        "meta_object_id": "1993-036GP",
        "meta_epoch": "2025-12-17T06:56:32.879616",
        "meta_mean_motion": 14.49052548,
        "meta_eccentricity": 0.00334056,
        "meta_inclination": 74.035,
        "meta_ra_of_asc_node": 304.578,
        "meta_arg_of_pericenter": 316.2119,
        "meta_mean_anomaly": 43.6392,
        "meta_ephemeris_type": 0,
        "meta_classification_type": "U",
        "meta_norad_cat_id": 34004,
        "meta_element_set_no": 999,
        "meta_rev_at_epoch": 88096,
        "meta_bstar": 0.001009477,
        "meta_mean_motion_dot": 3.834e-05,
        "meta_mean_motion_ddot": 0,
        "tle_line1": "1 34004U 93036GP  25351.28926944  .00003834  00000+0  10095-2 0  9996",
        "tle_line2": "2 34004  74.0350 304.5780 0033405 316.2119  43.6392 14.49052548880967"
      },
      "geometry": {
        "type": "Point",
        "coordinates": [
          137.94946362533523,
          -40.899555279788295
        ]
      }
    },
    {
      "type": "Feature",
      "properties": {
        "norad_id": 34005,
        "name": "COSMOS 2251 DEB",
        "group": "cosmos-2251-debris",
        "lat": -21.607989309512558,
        "lon": -162.23660751506418,
        "alt_km": 748.0364283353001,
        "timestamp": "2025-12-17T19:34:08.431080+00:00",
        "meta_object_name": "COSMOS 2251 DEB",
        "meta_object_id": "1993-036GQ",
        "meta_epoch": "2025-12-17T02:03:51.004800",
        "meta_mean_motion": 14.40307531,
        "meta_eccentricity": 0.00209899,
        "meta_inclination": 74.0439,
        "meta_ra_of_asc_node": 205.6174,
        "meta_arg_of_pericenter": 323.0811,
        "meta_mean_anomaly": 194.1162,
        "meta_ephemeris_type": 0,
        "meta_classification_type": "U",
        "meta_norad_cat_id": 34005,
        "meta_element_set_no": 999,
        "meta_rev_at_epoch": 88441,
        "meta_bstar": 9.8416414e-05,
        "meta_mean_motion_dot": 2.86e-06,
        "meta_mean_motion_ddot": 0,
        "tle_line1": "1 34005U 93036GQ  25351.08600700  .00000286  00000+0  98416-4 0  9997",
        "tle_line2": "2 34005  74.0439 205.6174 0020989 323.0811 194.1162 14.40307531884419"
      },
      "geometry": {
        "type": "Point",
        "coordinates": [
          -162.23660751506418,
          -21.607989309512558
        ]
      }
    },
    {
      "type": "Feature",
      "properties": {
        "norad_id": 34006,
        "name": "COSMOS 2251 DEB",
        "group": "cosmos-2251-debris",
        "lat": 18.849439290188144,
        "lon": -52.540730139467605,
        "alt_km": 581.6140496039216,
        "timestamp": "2025-12-17T19:34:08.431091+00:00",
        "meta_object_name": "COSMOS 2251 DEB",
        "meta_object_id": "1993-036GR",
        "meta_epoch": "2025-12-17T03:34:04.814112",
        "meta_mean_motion": 14.95055718,
        "meta_eccentricity": 0.00115093,
        "meta_inclination": 74.0527,
        "meta_ra_of_asc_node": 134.404,
        "meta_arg_of_pericenter": 74.6304,
        "meta_mean_anomaly": 98.6159,
        "meta_ephemeris_type": 0,
        "meta_classification_type": "U",
        "meta_norad_cat_id": 34006,
        "meta_element_set_no": 999,
        "meta_rev_at_epoch": 88734,
        "meta_bstar": 0.002542804,
        "meta_mean_motion_dot": 0.00027961,
        "meta_mean_motion_ddot": 0,
        "tle_line1": "1 34006U 93036GR  25351.14866683  .00027961  00000+0  25428-2 0  9999",
        "tle_line2": "2 34006  74.0527 134.4040 0011509  74.6304  98.6159 14.95055718887349"
      },
      "geometry": {
        "type": "Point",
        "coordinates": [
          -52.540730139467605,
          18.849439290188144
        ]
      }
    },
    {
      "type": "Feature",
      "properties": {
        "norad_id": 34007,
        "name": "COSMOS 2251 DEB",
        "group": "cosmos-2251-debris",
        "lat": -73.85264714097993,
        "lon": -121.06545199329008,
        "alt_km": 713.3834849692967,
        "timestamp": "2025-12-17T19:34:08.431101+00:00",
        "meta_object_name": "COSMOS 2251 DEB",
        "meta_object_id": "1993-036GS",
        "meta_epoch": "2025-12-17T05:14:26.844864",
        "meta_mean_motion": 14.64817517,
        "meta_eccentricity": 0.00442421,
        "meta_inclination": 74.019,
        "meta_ra_of_asc_node": 338.2748,
        "meta_arg_of_pericenter": 111.7587,
        "meta_mean_anomaly": 248.8299,
        "meta_ephemeris_type": 0,
        "meta_classification_type": "U",
        "meta_norad_cat_id": 34007,
        "meta_element_set_no": 999,
        "meta_rev_at_epoch": 89145,
        "meta_bstar": 0.00050792683,
        "meta_mean_motion_dot": 2.719e-05,
        "meta_mean_motion_ddot": 0,
        "tle_line1": "1 34007U 93036GS  25351.21836626  .00002719  00000+0  50793-3 0  9990",
        "tle_line2": "2 34007  74.0190 338.2748 0044242 111.7587 248.8299 14.64817517891451"
      },
      "geometry": {
        "type": "Point",
        "coordinates": [
          -121.06545199329008,
          -73.85264714097993
        ]
      }
    },
    {
      "type": "Feature",
      "properties": {
        "norad_id": 34008,
        "name": "COSMOS 2251 DEB",
        "group": "cosmos-2251-debris",
        "lat": 61.57497639135647,
        "lon": 109.31021057579895,
        "alt_km": 791.1419324029885,
        "timestamp": "2025-12-17T19:34:08.431111+00:00",
        "meta_object_name": "COSMOS 2251 DEB",
        "meta_object_id": "1993-036GT",
        "meta_epoch": "2025-12-17T07:52:33.244320",
        "meta_mean_motion": 14.33149559,
        "meta_eccentricity": 0.00244781,
        "meta_inclination": 74.0344,
        "meta_ra_of_asc_node": 322.1322,
        "meta_arg_of_pericenter": 316.6023,
        "meta_mean_anomaly": 164.3902,
        "meta_ephemeris_type": 0,
        "meta_classification_type": "U",
        "meta_norad_cat_id": 34008,
        "meta_element_set_no": 999,
        "meta_rev_at_epoch": 88030,
        "meta_bstar": 0.00010933472,
        "meta_mean_motion_dot": 2.75e-06,
        "meta_mean_motion_ddot": 0,
        "tle_line1": "1 34008U 93036GT  25351.32816255  .00000275  00000+0  10933-3 0  9996",
        "tle_line2": "2 34008  74.0344 322.1322 0024478 316.6023 164.3902 14.33149559880308"
      },
      "geometry": {
        "type": "Point",
        "coordinates": [
          109.31021057579895,
          61.57497639135647
        ]
      }
    },
    {
      "type": "Feature",
      "properties": {
        "norad_id": 34009,
        "name": "COSMOS 2251 DEB",
        "group": "cosmos-2251-debris",
        "lat": 27.407166510910876,
        "lon": 139.12595505248945,
        "alt_km": 787.671378870129,
        "timestamp": "2025-12-17T19:34:08.431120+00:00",
        "meta_object_name": "COSMOS 2251 DEB",
        "meta_object_id": "1993-036GU",
        "meta_epoch": "2025-12-17T07:41:03.700608",
        "meta_mean_motion": 14.33225908,
        "meta_eccentricity": 0.00266776,
        "meta_inclination": 74.0372,
        "meta_ra_of_asc_node": 328.5654,
        "meta_arg_of_pericenter": 36.7927,
        "meta_mean_anomaly": 80.2452,
        "meta_ephemeris_type": 0,
        "meta_classification_type": "U",
        "meta_norad_cat_id": 34009,
        "meta_element_set_no": 999,
        "meta_rev_at_epoch": 88011,
        "meta_bstar": 0.00012906287,
        "meta_mean_motion_dot": 3.3e-06,
        "meta_mean_motion_ddot": 0,
        "tle_line1": "1 34009U 93036GU  25351.32018172  .00000330  00000+0  12906-3 0  9993",
        "tle_line2": "2 34009  74.0372 328.5654 0026677  36.7927  80.2452 14.33225908880112"
      },
      "geometry": {
        "type": "Point",
        "coordinates": [
          139.12595505248945,
          27.407166510910876
        ]
      }
    }
  ]
}